JILIN-1 GAOFEN 03D51    
1 54252U 22155B   26193.57183514  .00042388  00000+0  43774-3 0  9990
2 54252  97.6245 340.3816 0004230 241.3393 118.7440 15.64660734203712
JILIN-1 GAOFEN 03D53    
1 54253U 22155C   26193.53272060  .00022501  00000+0  34526-3 0  9992
2 54253  97.6238 335.5858 0004814 263.0379  97.0326 15.54301824203421
JILIN-1 GAOFEN 03D52    
1 54255U 22155E   26193.55540507  .00034302  00000+0  39576-3 0  9992
2 54255  97.6219 338.5877 0003564 257.7118 102.3741 15.61859192203669
JILIN-1 GAOFEN 03D50    
1 54690U 22167J   26193.55584789  .00006941  00000+0  20671-3 0  9992
2 54690  97.6844   2.4475 0005447  30.2115 329.9441 15.35026997199242
JILIN-1 GAOFEN 03D47    
1 54692U 22167L   26193.55851154  .00006478  00000+0  19742-3 0  9999
2 54692  97.6941   4.1878 0008018  38.0589 322.1218 15.34310416199233
JILIN-1 GAOFEN 03D49    
1 54694U 22167N   26193.51541075  .00008300  00000+0  22425-3 0  9993
2 54694  97.6817   4.7886 0006220  57.3747 302.8096 15.38001818199387
JILIN-1 GAOFEN 03D48    
1 54695U 22167P   26193.54964398  .00006900  00000+0  20078-3 0  9990
2 54695  97.6890   4.1572 0006691  38.8192 321.3531 15.35756675199289
JILIN GAOFEN OBJECT A   
1 68691U 26080A   26192.15570228  .00003515  00000+0  22509-3 0  9990
2 68691  97.6616 267.6398 0011579 349.3655  10.7327 15.09176094 13271
JILIN GAOFEN OBJECT B   
1 68692U 26080B   26193.46357472  .00002585  00000+0  16682-3 0  9991
2 68692  97.6595 268.9611 0014978 323.4202  36.6003 15.09091446 13474
JILIN GAOFEN OBJECT C   
1 68693U 26080C   26192.15437660  .00003480  00000+0  22294-3 0  9996
2 68693  97.6594 267.6231 0012393 329.6909  30.3601 15.09159850 13276
JILIN GAOFEN OBJECT D   
1 68694U 26080D   26193.46416502  .00002703  00000+0  17485-3 0  9997
2 68694  97.6659 269.0337 0016628 335.6077  24.4363 15.08947652 13453
JILIN GAOFEN OBJECT E   
1 68695U 26080E   26193.51264780  .00002502  00000+0  16111-3 0  9995
2 68695  97.6637 269.1021 0012672 346.9606  13.1293 15.09238249 13441
JILIN GAOFEN OBJECT F   
1 68696U 26080F   26193.51160381  .00002657  00000+0  17089-3 0  9994
2 68696  97.6608 269.0706 0013767 352.7413   7.3614 15.09202929 13444
JILIN GAOFEN OBJECT G   
1 68697U 26080G   26193.49769427  .00003354  00000+0  21474-3 0  9996
2 68697  97.6654 269.1393 0013655 345.5716  14.5121 15.09187793 13445
JILIN GAOFEN OBJECT H   
1 68698U 26080H   26191.63896873  .00003421  00000+0  21939-3 0  9998
2 68698  97.6637 267.2744 0014548 353.5464   6.5575 15.09105259 13167
