{"fetched_at":"2026-07-12T17:32:50.781Z","source":"https://celestrak.org/NORAD/elements/gp.php?NAME=JILIN&FORMAT=JSON","constellation":"jilin-1-gaofen","records":[{"OBJECT_NAME":"JILIN-1 GAOFEN 03D51","OBJECT_ID":"2022-155B","EPOCH":"2026-07-12T13:43:26.556096","CLASSIFICATION_TYPE":"U","MEAN_MOTION":15.64660734,"ECCENTRICITY":0.000423,"INCLINATION":97.6245,"RA_OF_ASC_NODE":340.3816,"ARG_OF_PERICENTER":241.3393,"MEAN_ANOMALY":118.744,"EPHEMERIS_TYPE":0,"NORAD_CAT_ID":54252,"ELEMENT_SET_NO":999,"REV_AT_EPOCH":20371,"BSTAR":0.00043774,"MEAN_MOTION_DOT":0.00042388,"MEAN_MOTION_DDOT":0},{"OBJECT_NAME":"JILIN-1 GAOFEN 03D53","OBJECT_ID":"2022-155C","EPOCH":"2026-07-12T12:47:07.059840","CLASSIFICATION_TYPE":"U","MEAN_MOTION":15.54301824,"ECCENTRICITY":0.0004814,"INCLINATION":97.6238,"RA_OF_ASC_NODE":335.5858,"ARG_OF_PERICENTER":263.0379,"MEAN_ANOMALY":97.0326,"EPHEMERIS_TYPE":0,"NORAD_CAT_ID":54253,"ELEMENT_SET_NO":999,"REV_AT_EPOCH":20342,"BSTAR":0.00034526,"MEAN_MOTION_DOT":0.00022501,"MEAN_MOTION_DDOT":0},{"OBJECT_NAME":"JILIN-1 GAOFEN 03D52","OBJECT_ID":"2022-155E","EPOCH":"2026-07-12T13:19:46.998048","CLASSIFICATION_TYPE":"U","MEAN_MOTION":15.61859192,"ECCENTRICITY":0.0003564,"INCLINATION":97.6219,"RA_OF_ASC_NODE":338.5877,"ARG_OF_PERICENTER":257.7118,"MEAN_ANOMALY":102.3741,"EPHEMERIS_TYPE":0,"NORAD_CAT_ID":54255,"ELEMENT_SET_NO":999,"REV_AT_EPOCH":20366,"BSTAR":0.00039576,"MEAN_MOTION_DOT":0.00034302,"MEAN_MOTION_DDOT":0},{"OBJECT_NAME":"JILIN-1 GAOFEN 03D50","OBJECT_ID":"2022-167J","EPOCH":"2026-07-12T13:20:25.257696","CLASSIFICATION_TYPE":"U","MEAN_MOTION":15.35026997,"ECCENTRICITY":0.0005447,"INCLINATION":97.6844,"RA_OF_ASC_NODE":2.4475,"ARG_OF_PERICENTER":30.2115,"MEAN_ANOMALY":329.9441,"EPHEMERIS_TYPE":0,"NORAD_CAT_ID":54690,"ELEMENT_SET_NO":999,"REV_AT_EPOCH":19924,"BSTAR":0.00020671,"MEAN_MOTION_DOT":0.00006941,"MEAN_MOTION_DDOT":0},{"OBJECT_NAME":"JILIN-1 GAOFEN 03D47","OBJECT_ID":"2022-167L","EPOCH":"2026-07-12T13:24:15.397056","CLASSIFICATION_TYPE":"U","MEAN_MOTION":15.34310416,"ECCENTRICITY":0.0008018,"INCLINATION":97.6941,"RA_OF_ASC_NODE":4.1878,"ARG_OF_PERICENTER":38.0589,"MEAN_ANOMALY":322.1218,"EPHEMERIS_TYPE":0,"NORAD_CAT_ID":54692,"ELEMENT_SET_NO":999,"REV_AT_EPOCH":19923,"BSTAR":0.00019742,"MEAN_MOTION_DOT":0.00006478,"MEAN_MOTION_DDOT":0},{"OBJECT_NAME":"JILIN-1 GAOFEN 03D49","OBJECT_ID":"2022-167N","EPOCH":"2026-07-12T12:22:11.488800","CLASSIFICATION_TYPE":"U","MEAN_MOTION":15.38001818,"ECCENTRICITY":0.000622,"INCLINATION":97.6817,"RA_OF_ASC_NODE":4.7886,"ARG_OF_PERICENTER":57.3747,"MEAN_ANOMALY":302.8096,"EPHEMERIS_TYPE":0,"NORAD_CAT_ID":54694,"ELEMENT_SET_NO":999,"REV_AT_EPOCH":19938,"BSTAR":0.00022425,"MEAN_MOTION_DOT":0.000083,"MEAN_MOTION_DDOT":0},{"OBJECT_NAME":"JILIN-1 GAOFEN 03D48","OBJECT_ID":"2022-167P","EPOCH":"2026-07-12T13:11:29.239872","CLASSIFICATION_TYPE":"U","MEAN_MOTION":15.35756675,"ECCENTRICITY":0.0006691,"INCLINATION":97.689,"RA_OF_ASC_NODE":4.1572,"ARG_OF_PERICENTER":38.8192,"MEAN_ANOMALY":321.3531,"EPHEMERIS_TYPE":0,"NORAD_CAT_ID":54695,"ELEMENT_SET_NO":999,"REV_AT_EPOCH":19928,"BSTAR":0.00020078,"MEAN_MOTION_DOT":0.000069,"MEAN_MOTION_DDOT":0},{"OBJECT_NAME":"JILIN GAOFEN OBJECT A","OBJECT_ID":"2026-080A","EPOCH":"2026-07-11T03:44:12.676992","CLASSIFICATION_TYPE":"U","MEAN_MOTION":15.09176094,"ECCENTRICITY":0.0011579,"INCLINATION":97.6616,"RA_OF_ASC_NODE":267.6398,"ARG_OF_PERICENTER":349.3655,"MEAN_ANOMALY":10.7327,"EPHEMERIS_TYPE":0,"NORAD_CAT_ID":68691,"ELEMENT_SET_NO":999,"REV_AT_EPOCH":1327,"BSTAR":0.00022509419,"MEAN_MOTION_DOT":0.00003515,"MEAN_MOTION_DDOT":0},{"OBJECT_NAME":"JILIN GAOFEN OBJECT B","OBJECT_ID":"2026-080B","EPOCH":"2026-07-12T11:07:32.855808","CLASSIFICATION_TYPE":"U","MEAN_MOTION":15.09091446,"ECCENTRICITY":0.0014978,"INCLINATION":97.6595,"RA_OF_ASC_NODE":268.9611,"ARG_OF_PERICENTER":323.4202,"MEAN_ANOMALY":36.6003,"EPHEMERIS_TYPE":0,"NORAD_CAT_ID":68692,"ELEMENT_SET_NO":999,"REV_AT_EPOCH":1347,"BSTAR":0.00016682,"MEAN_MOTION_DOT":0.00002585,"MEAN_MOTION_DDOT":0},{"OBJECT_NAME":"JILIN GAOFEN OBJECT C","OBJECT_ID":"2026-080C","EPOCH":"2026-07-11T03:42:18.138240","CLASSIFICATION_TYPE":"U","MEAN_MOTION":15.0915985,"ECCENTRICITY":0.00123938,"INCLINATION":97.6594,"RA_OF_ASC_NODE":267.6231,"ARG_OF_PERICENTER":329.6909,"MEAN_ANOMALY":30.3601,"EPHEMERIS_TYPE":0,"NORAD_CAT_ID":68693,"ELEMENT_SET_NO":999,"REV_AT_EPOCH":1327,"BSTAR":0.0002229405,"MEAN_MOTION_DOT":0.0000348,"MEAN_MOTION_DDOT":0},{"OBJECT_NAME":"JILIN GAOFEN OBJECT D","OBJECT_ID":"2026-080D","EPOCH":"2026-07-12T11:08:23.857728","CLASSIFICATION_TYPE":"U","MEAN_MOTION":15.08947652,"ECCENTRICITY":0.0016628,"INCLINATION":97.6659,"RA_OF_ASC_NODE":269.0337,"ARG_OF_PERICENTER":335.6077,"MEAN_ANOMALY":24.4363,"EPHEMERIS_TYPE":0,"NORAD_CAT_ID":68694,"ELEMENT_SET_NO":999,"REV_AT_EPOCH":1345,"BSTAR":0.00017485,"MEAN_MOTION_DOT":0.00002703,"MEAN_MOTION_DDOT":0},{"OBJECT_NAME":"JILIN GAOFEN OBJECT E","OBJECT_ID":"2026-080E","EPOCH":"2026-07-12T12:18:12.769920","CLASSIFICATION_TYPE":"U","MEAN_MOTION":15.09238249,"ECCENTRICITY":0.0012672,"INCLINATION":97.6637,"RA_OF_ASC_NODE":269.1021,"ARG_OF_PERICENTER":346.9606,"MEAN_ANOMALY":13.1293,"EPHEMERIS_TYPE":0,"NORAD_CAT_ID":68695,"ELEMENT_SET_NO":999,"REV_AT_EPOCH":1344,"BSTAR":0.00016111,"MEAN_MOTION_DOT":0.00002502,"MEAN_MOTION_DDOT":0},{"OBJECT_NAME":"JILIN GAOFEN OBJECT F","OBJECT_ID":"2026-080F","EPOCH":"2026-07-12T12:16:42.569184","CLASSIFICATION_TYPE":"U","MEAN_MOTION":15.09202929,"ECCENTRICITY":0.0013767,"INCLINATION":97.6608,"RA_OF_ASC_NODE":269.0706,"ARG_OF_PERICENTER":352.7413,"MEAN_ANOMALY":7.3614,"EPHEMERIS_TYPE":0,"NORAD_CAT_ID":68696,"ELEMENT_SET_NO":999,"REV_AT_EPOCH":1344,"BSTAR":0.00017089,"MEAN_MOTION_DOT":0.00002657,"MEAN_MOTION_DDOT":0},{"OBJECT_NAME":"JILIN GAOFEN OBJECT G","OBJECT_ID":"2026-080G","EPOCH":"2026-07-12T11:56:40.784928","CLASSIFICATION_TYPE":"U","MEAN_MOTION":15.09187793,"ECCENTRICITY":0.0013655,"INCLINATION":97.6654,"RA_OF_ASC_NODE":269.1393,"ARG_OF_PERICENTER":345.5716,"MEAN_ANOMALY":14.5121,"EPHEMERIS_TYPE":0,"NORAD_CAT_ID":68697,"ELEMENT_SET_NO":999,"REV_AT_EPOCH":1344,"BSTAR":0.00021474,"MEAN_MOTION_DOT":0.00003354,"MEAN_MOTION_DDOT":0},{"OBJECT_NAME":"JILIN GAOFEN OBJECT H","OBJECT_ID":"2026-080H","EPOCH":"2026-07-10T15:20:06.898272","CLASSIFICATION_TYPE":"U","MEAN_MOTION":15.09105259,"ECCENTRICITY":0.00145489,"INCLINATION":97.6637,"RA_OF_ASC_NODE":267.2744,"ARG_OF_PERICENTER":353.5464,"MEAN_ANOMALY":6.5575,"EPHEMERIS_TYPE":0,"NORAD_CAT_ID":68698,"ELEMENT_SET_NO":999,"REV_AT_EPOCH":1316,"BSTAR":0.00021938544,"MEAN_MOTION_DOT":0.00003421,"MEAN_MOTION_DDOT":0}]}
